<?xml version="1.0" encoding="UTF-8"?>
<osm version="0.6" generator="CGImap 0.8.9 (1855400 spike-07.openstreetmap.org)" copyright="OpenStreetMap and contributors" attribution="http://www.openstreetmap.org/copyright" license="http://opendatacommons.org/licenses/odbl/1-0/">
 <way id="32812963" visible="true" version="18" changeset="140970965" timestamp="2023-09-08T06:51:36Z" user="tg4567" uid="12500589">
  <nd ref="4346059294"/>
  <nd ref="6387796922"/>
  <nd ref="6387796921"/>
  <nd ref="369746135"/>
  <nd ref="369746136"/>
  <nd ref="369746137"/>
  <nd ref="369746138"/>
  <nd ref="369746139"/>
  <nd ref="369746140"/>
  <nd ref="369746141"/>
  <nd ref="369746142"/>
  <nd ref="369746143"/>
  <nd ref="369746144"/>
  <nd ref="369746145"/>
  <nd ref="369746146"/>
  <nd ref="369746147"/>
  <nd ref="369746148"/>
  <nd ref="369746149"/>
  <nd ref="369746150"/>
  <nd ref="369746151"/>
  <nd ref="369746152"/>
  <nd ref="369746153"/>
  <nd ref="369746154"/>
  <nd ref="369746155"/>
  <nd ref="369746156"/>
  <nd ref="369746157"/>
  <nd ref="369746158"/>
  <nd ref="369746159"/>
  <nd ref="369746160"/>
  <nd ref="369746161"/>
  <nd ref="369746162"/>
  <nd ref="369746163"/>
  <nd ref="369746164"/>
  <nd ref="369746165"/>
  <nd ref="369746166"/>
  <nd ref="369746167"/>
  <nd ref="6387796924"/>
  <nd ref="6387796923"/>
  <nd ref="369746168"/>
  <nd ref="4346059294"/>
  <tag k="addr:city" v="Cкoпje"/>
  <tag k="addr:city:en" v="Skopje"/>
  <tag k="addr:country" v="MK"/>
  <tag k="addr:postcode" v="1000"/>
  <tag k="addr:street" v="Прохор Пчински"/>
  <tag k="addr:street:en" v="Prohor Pcinski"/>
  <tag k="building" v="public"/>
  <tag k="fee" v="yes"/>
  <tag k="int_name" v="Muzej na Makedonija"/>
  <tag k="name" v="Музеј на Македонија"/>
  <tag k="name:bg" v="Музей на Македония"/>
  <tag k="name:en" v="Museum of Macedonia"/>
  <tag k="name:es" v="Museo de Macedonia"/>
  <tag k="name:fr" v="Musée de Macédoine"/>
  <tag k="name:pl" v="Muzeum Macedońskie"/>
  <tag k="name:tr" v="Makedonya müzesi"/>
  <tag k="payment:notes" v="yes"/>
  <tag k="tourism" v="museum"/>
  <tag k="wikidata" v="Q3133557"/>
  <tag k="wikimedia_commons" v="Category:Museum of Macedonia, Skopje"/>
  <tag k="wikipedia" v="mk:Музеј на Македонија"/>
 </way>
</osm>
