<?xml version="1.0" encoding="UTF-8"?>
<osm version="0.6" generator="CGImap 0.8.9 (1175090 spike-08.openstreetmap.org)" copyright="OpenStreetMap and contributors" attribution="http://www.openstreetmap.org/copyright" license="http://opendatacommons.org/licenses/odbl/1-0/">
 <way id="172171547" visible="true" version="12" changeset="143284427" timestamp="2023-10-28T21:19:54Z" user="b-jazz-bot" uid="9451067">
  <nd ref="1831061821"/>
  <nd ref="1831061818"/>
  <nd ref="1831061820"/>
  <nd ref="1831061819"/>
  <nd ref="1831061821"/>
  <tag k="addr:city" v="Cкoпje"/>
  <tag k="addr:city:en" v="Skopje"/>
  <tag k="addr:country" v="MK"/>
  <tag k="addr:postcode" v="1000"/>
  <tag k="amenity" v="arts_centre"/>
  <tag k="building" v="yes"/>
  <tag k="email" v="contact@nationalgallery.mk"/>
  <tag k="fee" v="yes"/>
  <tag k="int_name" v="Nacionalna Galerija -Daut Pašin Amam"/>
  <tag k="name" v="Национална галерија „Даут-пашин амам“"/>
  <tag k="name:en" v="Daut Pasha Hamam National Gallery"/>
  <tag k="opening_hours" v="Tu-Su 10:00-18:00"/>
  <tag k="phone" v="+389 2 3133102"/>
  <tag k="tourism" v="museum"/>
  <tag k="website" v="https://nationalgallery.mk/"/>
  <tag k="wikipedia" v="en:National Gallery of Macedonia"/>
 </way>
</osm>
